QIANFAN-105             
1 66047U 25233Q   25343.48721398  .00000516  00000+0  34586-3 0  9997
2 66047  88.9961  62.4918 0016889  53.1715 307.1009 13.99264862  7535
QIANFAN-106             
1 66048U 25233R   25343.10919995  .00000103  00000+0  72878-4 0  9998
2 66048  88.9955  62.5451 0017456  53.9244 306.3543 13.90036498  7478
QIANFAN-107             
1 66049U 25233S   25343.16413685  .00000204  00000+0  15947-3 0  9995
2 66049  89.0050  62.5475 0015539  50.1950 310.0587 13.88236794  7485
QIANFAN-108             
1 66050U 25233T   25343.45999279  .00000262  00000+0  20713-3 0  9998
2 66050  88.9961  62.5056 0016773  56.6397 303.6378 13.88506844  7525
